0 IUS R/B(1)
1 20843U 90090C   13282.80346758  .00003371  00000-0  20092-2 0  1971
2 20843 028.1035 191.9309 6801296 027.9250 155.5213 02.86737768229039
0 IUS R/B(1)
1 20843U 90090C   13283.94425029  .00003739  00000-0  21984-2 0  1986
2 20843 028.1019 191.3798 6801576 028.8241 253.1092 02.86745795229071
0 IUS R/B(1)
1 20843U 90090C   13286.15385855  .00003622  00000-0  22063-2 0  2008
2 20843 028.0989 190.3117 6802100 030.5664 014.1172 02.86760358229136
0 IUS R/B(1)
1 20843U 90090C   13287.19755345  .00003714  00000-0  23267-2 0  2018
2 20843 028.0977 189.8073 6802355 031.3883 011.5741 02.86767737229165
0 IUS R/B(1)
1 20843U 90090C   13288.52416034  .00004104  00000-0  26170-2 0  2026
2 20843 028.0954 189.1643 6802680 032.4333 301.1296 02.86781303229202
0 IUS R/B(1)
1 20843U 90090C   13289.63409330  .00003993  00000-0  25733-2 0  2030
2 20843 028.0939 188.6283 6802931 033.3054 007.0457 02.86791476229234
0 IUS R/B(1)
1 20843U 90090C   13290.68200046  .00004018  00000-0  25728-2 0  2044
2 20843 028.0923 188.1215 6803155 034.1311 008.9613 02.86801305229261
0 IUS R/B(1)
1 20843U 90090C   13292.07787877  .00003998  00000-0  24928-2 0  2059
2 20843 028.0899 187.4457 6803490 035.2341 010.2020 02.86813915229303
0 IUS R/B(1)
1 20843U 90090C   13293.12675172  .00004310  00000-0  25933-2 0  2067
2 20843 028.0882 186.9375 6803713 036.0636 013.2024 02.86823792229336
0 IUS R/B(1)
1 20843U 90090C   13294.17091281  .00004264  00000-0  24882-2 0  2077
2 20843 028.0868 186.4316 6803918 036.8886 011.3664 02.86835501229365
0 IUS R/B(1)
1 20843U 90090C   13295.53853122  .00004401  00000-0  24679-2 0  2086
2 20843 028.0852 185.7687 6804173 037.9652 343.5899 02.86847499229402
0 IUS R/B(1)
1 20843U 90090C   13295.90588648  .00004373  00000-0  24276-2 0  2097
2 20843 028.0844 185.5907 6804271 038.2561 002.9269 02.86852427229413
